[{"OBJECT_NAME":"OBJECT F","OBJECT_ID":"2022-023F","EPOCH":"2026-03-09T23:55:35.397408","MEAN_MOTION":15.18257694,"ECCENTRICITY":0.01194645,"INCLINATION":63.4547,"RA_OF_ASC_NODE":250.628,"ARG_OF_PERICENTER":343.8947,"MEAN_ANOMALY":15.838,"EPHEMERIS_TYPE":0,"CLASSIFICATION_TYPE":"U","NORAD_CAT_ID":51951,"ELEMENT_SET_NO":999,"REV_AT_EPOCH":22265,"BSTAR":0.00028900174,"MEAN_MOTION_DOT":6.929e-5,"MEAN_MOTION_DDOT":0},{"OBJECT_NAME":"STARLINK-33750","OBJECT_ID":"2025-071W","EPOCH":"2026-03-09T12:52:42.250368","MEAN_MOTION":15.30181383,"ECCENTRICITY":0.00012263,"INCLINATION":53.1584,"RA_OF_ASC_NODE":140.7934,"ARG_OF_PERICENTER":100.9824,"MEAN_ANOMALY":259.1314,"EPHEMERIS_TYPE":0,"CLASSIFICATION_TYPE":"U","NORAD_CAT_ID":63513,"ELEMENT_SET_NO":999,"REV_AT_EPOCH":5272,"BSTAR":0.00099185208,"MEAN_MOTION_DOT":0.00029115,"MEAN_MOTION_DDOT":0}]
